{"type": "FeatureCollection", "features": [ {"type": "Feature", "properties": {"norad_id": 37967, "name": "COSMOS 2251 DEB", "group": "cosmos-2251-debris", "lat": 19.222999867118, "lon": -35.47414823121258, "alt_km": 826.0418924512906, "timestamp": "2025-12-05T18:53:13.679584+00:00", "meta": {"OBJECT_NAME": "COSMOS 2251 DEB", "OBJECT_ID": "1993-036BPS", "EPOCH": "2025-12-04T05:27:45.885024", "MEAN_MOTION": 14.40381703, "ECCENTRICITY": 0.0150733, "INCLINATION": 74.0136, "RA_OF_ASC_NODE": 153.1499, "ARG_OF_PERICENTER": 293.7669, "MEAN_ANOMALY": 64.774, "EPHEMERIS_TYPE": 0, "CLASSIFICATION_TYPE": "U", "NORAD_CAT_ID": 37967, "ELEMENT_SET_NO": 999, "REV_AT_EPOCH": 64613, "BSTAR": 0.0030035, "MEAN_MOTION_DOT": 0.00010892, "MEAN_MOTION_DDOT": 0}, "tle": {"line1": "1 37967U 93036BPS 25338.22761441  .00010892  00000+0  30035-2 0  9993", "line2": "2 37967  74.0136 153.1499 0150733 293.7669  64.7740 14.40381703646137"}}, "geometry": {"type": "Point", "coordinates": [-35.47414823121258, 19.222999867118]}}, {"type": "Feature", "properties": {"norad_id": 37968, "name": "COSMOS 2251 DEB", "group": "cosmos-2251-debris", "lat": -65.51546504844347, "lon": 144.38947801862415, "alt_km": 622.0714075462147, "timestamp": "2025-12-05T18:53:13.679594+00:00", "meta": {"OBJECT_NAME": "COSMOS 2251 DEB", "OBJECT_ID": "1993-036BPT", "EPOCH": "2025-12-03T03:21:20.781504", "MEAN_MOTION": 15.00197638, "ECCENTRICITY": 0.00808241, "INCLINATION": 74.0001, "RA_OF_ASC_NODE": 290.7252, "ARG_OF_PERICENTER": 48.8285, "MEAN_ANOMALY": 311.9836, "EPHEMERIS_TYPE": 0, "CLASSIFICATION_TYPE": "U", "NORAD_CAT_ID": 37968, "ELEMENT_SET_NO": 999, "REV_AT_EPOCH": 60075, "BSTAR": 0.0013441412, "MEAN_MOTION_DOT": 0.00018013, "MEAN_MOTION_DDOT": 0}, "tle": {"line1": "1 37968U 93036BPT 25337.13982386  .00018013  00000+0  13441-2 0  9991", "line2": "2 37968  74.0001 290.7252 0080824  48.8285 311.9836 15.00197638600750"}}, "geometry": {"type": "Point", "coordinates": [144.38947801862415, -65.51546504844347]}}, {"type": "Feature", "properties": {"norad_id": 37971, "name": "COSMOS 2251 DEB", "group": "cosmos-2251-debris", "lat": 26.245751447383814, "lon": 62.94070750377318, "alt_km": 776.8553931974047, "timestamp": "2025-12-05T18:53:13.679604+00:00", "meta": {"OBJECT_NAME": "COSMOS 2251 DEB", "OBJECT_ID": "1993-036BPW", "EPOCH": "2025-12-03T12:03:21.948768", "MEAN_MOTION": 14.48378174, "ECCENTRICITY": 0.00684434, "INCLINATION": 73.9938, "RA_OF_ASC_NODE": 59.093, "ARG_OF_PERICENTER": 199.3195, "MEAN_ANOMALY": 160.5369, "EPHEMERIS_TYPE": 0, "CLASSIFICATION_TYPE": "U", "NORAD_CAT_ID": 37971, "ELEMENT_SET_NO": 999, "REV_AT_EPOCH": 60544, "BSTAR": 0.0031797181, "MEAN_MOTION_DOT": 0.00012254, "MEAN_MOTION_DDOT": 0}, "tle": {"line1": "1 37971U 93036BPW 25337.50233737  .00012254  00000+0  31797-2 0  9990", "line2": "2 37971  73.9938  59.0930 0068443 199.3195 160.5369 14.48378174605442"}}, "geometry": {"type": "Point", "coordinates": [62.94070750377318, 26.245751447383814]}}, {"type": "Feature", "properties": {"norad_id": 37975, "name": "COSMOS 2251 DEB", "group": "cosmos-2251-debris", "lat": -44.62090400795169, "lon": -38.735748515457715, "alt_km": 584.518036961993, "timestamp": "2025-12-05T18:53:13.679614+00:00", "meta": {"OBJECT_NAME": "COSMOS 2251 DEB", "OBJECT_ID": "1993-036BQA", "EPOCH": "2025-11-29T10:05:48.736608", "MEAN_MOTION": 14.74991313, "ECCENTRICITY": 0.00977788, "INCLINATION": 74.0026, "RA_OF_ASC_NODE": 350.1763, "ARG_OF_PERICENTER": 342.2584, "MEAN_ANOMALY": 17.5181, "EPHEMERIS_TYPE": 0, "CLASSIFICATION_TYPE": "U", "NORAD_CAT_ID": 37975, "ELEMENT_SET_NO": 999, "REV_AT_EPOCH": 69549, "BSTAR": 0.0028756754, "MEAN_MOTION_DOT": 0.00020929, "MEAN_MOTION_DDOT": 0}, "tle": {"line1": "1 37975U 93036BQA 25333.42070297  .00020929  00000+0  28757-2 0  9991", "line2": "2 37975  74.0026 350.1763 0097778 342.2584  17.5181 14.74991313695491"}}, "geometry": {"type": "Point", "coordinates": [-38.735748515457715, -44.62090400795169]}}, {"type": "Feature", "properties": {"norad_id": 37978, "name": "COSMOS 2251 DEB", "group": "cosmos-2251-debris", "lat": -50.41680841681438, "lon": 84.62184188280315, "alt_km": 351.5171793317995, "timestamp": "2025-12-05T18:53:13.679624+00:00", "meta": {"OBJECT_NAME": "COSMOS 2251 DEB", "OBJECT_ID": "1993-036BQD", "EPOCH": "2025-11-19T05:08:53.100672", "MEAN_MOTION": 15.61137081, "ECCENTRICITY": 0.00148985, "INCLINATION": 74.0238, "RA_OF_ASC_NODE": 142.2198, "ARG_OF_PERICENTER": 140.9849, "MEAN_ANOMALY": 219.2448, "EPHEMERIS_TYPE": 0, "CLASSIFICATION_TYPE": "U", "NORAD_CAT_ID": 37978, "ELEMENT_SET_NO": 999, "REV_AT_EPOCH": 8032, "BSTAR": 0.0043958825, "MEAN_MOTION_DOT": 0.0039117, "MEAN_MOTION_DDOT": 0}, "tle": {"line1": "1 37978U 93036BQD 25323.21450348  .00391170  00000+0  43959-2 0  9999", "line2": "2 37978  74.0238 142.2198 0014898 140.9849 219.2448 15.61137081 80328"}}, "geometry": {"type": "Point", "coordinates": [84.62184188280315, -50.41680841681438]}}, {"type": "Feature", "properties": {"norad_id": 37985, "name": "COSMOS 2251 DEB", "group": "cosmos-2251-debris", "lat": -48.09106962642276, "lon": -100.11305829436199, "alt_km": 780.9850691199854, "timestamp": "2025-12-05T18:53:13.679634+00:00", "meta": {"OBJECT_NAME": "COSMOS 2251 DEB", "OBJECT_ID": "1993-036BQL", "EPOCH": "2025-12-04T02:58:50.123136", "MEAN_MOTION": 14.35478479, "ECCENTRICITY": 0.00205167, "INCLINATION": 74.0252, "RA_OF_ASC_NODE": 281.5497, "ARG_OF_PERICENTER": 46.9624, "MEAN_ANOMALY": 313.3243, "EPHEMERIS_TYPE": 0, "CLASSIFICATION_TYPE": "U", "NORAD_CAT_ID": 37985, "ELEMENT_SET_NO": 999, "REV_AT_EPOCH": 64793, "BSTAR": 0.00010075187, "MEAN_MOTION_DOT": 2.64e-06, "MEAN_MOTION_DDOT": 0}, "tle": {"line1": "1 37985U 93036BQL 25338.12419124  .00000264  00000+0  10075-3 0  9995", "line2": "2 37985  74.0252 281.5497 0020516  46.9624 313.3243 14.35478479647935"}}, "geometry": {"type": "Point", "coordinates": [-100.11305829436199, -48.09106962642276]}}, {"type": "Feature", "properties": {"norad_id": 37988, "name": "COSMOS 2251 DEB", "group": "cosmos-2251-debris", "lat": -17.497393807566954, "lon": -137.37184493765886, "alt_km": 692.1784882428738, "timestamp": "2025-12-05T18:53:13.679644+00:00", "meta": {"OBJECT_NAME": "COSMOS 2251 DEB", "OBJECT_ID": "1993-036BQP", "EPOCH": "2025-12-03T03:52:26.933376", "MEAN_MOTION": 14.68713906, "ECCENTRICITY": 0.00633293, "INCLINATION": 74.0639, "RA_OF_ASC_NODE": 42.5299, "ARG_OF_PERICENTER": 83.2268, "MEAN_ANOMALY": 277.6103, "EPHEMERIS_TYPE": 0, "CLASSIFICATION_TYPE": "U", "NORAD_CAT_ID": 37988, "ELEMENT_SET_NO": 999, "REV_AT_EPOCH": 23255, "BSTAR": 0.001359236, "MEAN_MOTION_DOT": 8.141e-05, "MEAN_MOTION_DDOT": 0}, "tle": {"line1": "1 37988U 93036BQP 25337.16142284  .00008141  00000+0  13592-2 0  9999", "line2": "2 37988  74.0639  42.5299 0063329  83.2268 277.6103 14.68713906232557"}}, "geometry": {"type": "Point", "coordinates": [-137.37184493765886, -17.497393807566954]}}, {"type": "Feature", "properties": {"norad_id": 37993, "name": "COSMOS 2251 DEB", "group": "cosmos-2251-debris", "lat": -18.3439832805107, "lon": 5.642042506899787, "alt_km": 693.3258350991846, "timestamp": "2025-12-05T18:53:13.679654+00:00", "meta": {"OBJECT_NAME": "COSMOS 2251 DEB", "OBJECT_ID": "1993-036BQU", "EPOCH": "2025-12-03T19:55:21.764064", "MEAN_MOTION": 14.59748626, "ECCENTRICITY": 0.00218643, "INCLINATION": 74.0235, "RA_OF_ASC_NODE": 183.9251, "ARG_OF_PERICENTER": 273.6547, "MEAN_ANOMALY": 86.2118, "EPHEMERIS_TYPE": 0, "CLASSIFICATION_TYPE": "U", "NORAD_CAT_ID": 37993, "ELEMENT_SET_NO": 999, "REV_AT_EPOCH": 65187, "BSTAR": 0.0022910126, "MEAN_MOTION_DOT": 0.00010959, "MEAN_MOTION_DDOT": 0}, "tle": {"line1": "1 37993U 93036BQU 25337.83011301  .00010959  00000+0  22910-2 0  9998", "line2": "2 37993  74.0235 183.9251 0021864 273.6547  86.2118 14.59748626651873"}}, "geometry": {"type": "Point", "coordinates": [5.642042506899787, -18.3439832805107]}}, {"type": "Feature", "properties": {"norad_id": 37994, "name": "COSMOS 2251 DEB", "group": "cosmos-2251-debris", "lat": 66.82463470991158, "lon": -29.507456274285477, "alt_km": 745.7723304109923, "timestamp": "2025-12-05T18:53:13.679664+00:00", "meta": {"OBJECT_NAME": "COSMOS 2251 DEB", "OBJECT_ID": "1993-036BQV", "EPOCH": "2025-12-05T06:52:33.740832", "MEAN_MOTION": 14.39594938, "ECCENTRICITY": 0.00225832, "INCLINATION": 74.0358, "RA_OF_ASC_NODE": 289.4513, "ARG_OF_PERICENTER": 10.4429, "MEAN_ANOMALY": 349.719, "EPHEMERIS_TYPE": 0, "CLASSIFICATION_TYPE": "U", "NORAD_CAT_ID": 37994, "ELEMENT_SET_NO": 999, "REV_AT_EPOCH": 76957, "BSTAR": 0.00068468124, "MEAN_MOTION_DOT": 2.119e-05, "MEAN_MOTION_DDOT": 0}, "tle": {"line1": "1 37994U 93036BQV 25339.28650163  .00002119  00000+0  68468-3 0  9993", "line2": "2 37994  74.0358 289.4513 0022583  10.4429 349.7190 14.39594938769575"}}, "geometry": {"type": "Point", "coordinates": [-29.507456274285477, 66.82463470991158]}}, {"type": "Feature", "properties": {"norad_id": 37996, "name": "COSMOS 2251 DEB", "group": "cosmos-2251-debris", "lat": -8.258127151193312, "lon": -146.95126048258243, "alt_km": 715.2327806533749, "timestamp": "2025-12-05T18:53:13.679673+00:00", "meta": {"OBJECT_NAME": "COSMOS 2251 DEB", "OBJECT_ID": "1993-036BQX", "EPOCH": "2025-11-16T18:35:00.708864", "MEAN_MOTION": 14.09591608, "ECCENTRICITY": 0.02219827, "INCLINATION": 74.0658, "RA_OF_ASC_NODE": 248.8308, "ARG_OF_PERICENTER": 5.4709, "MEAN_ANOMALY": 354.8776, "EPHEMERIS_TYPE": 0, "CLASSIFICATION_TYPE": "U", "NORAD_CAT_ID": 37996, "ELEMENT_SET_NO": 999, "REV_AT_EPOCH": 55769, "BSTAR": 0.0096790999, "MEAN_MOTION_DOT": 0.00021331, "MEAN_MOTION_DDOT": 0}, "tle": {"line1": "1 37996U 93036BQX 25320.77431376  .00021331  00000+0  96791-2 0  9998", "line2": "2 37996  74.0658 248.8308 0221982   5.4709 354.8776 14.09591608557693"}}, "geometry": {"type": "Point", "coordinates": [-146.95126048258243, -8.258127151193312]}}]}